LEMUR-2-JOHNNYTRUONG    
1 59146U 24043BA  26185.96952882  .00066781  00000+0  76476-3 0  9999
2 59146  97.5393 338.7921 0004533 123.5420 236.6271 15.61902420130818
LEMUR-2-TOMATOKECHUP    
1 60471U 24149D   26186.21554149  .00018596  00000+0  52481-3 0  9993
2 60471  97.3792 268.3123 0002842 140.6819 219.4632 15.36432698104938
LEMUR-2-STELLA          
1 60533U 24149BT  26186.21499767  .00020389  00000+0  11816-2 0  9995
2 60533  97.6730 268.7532 0001311 102.7190 257.4187 15.12224720103228
LEMUR-2-MARHISYAM       
1 60536U 24149BW  26186.20202322  .00018192  00000+0  10722-2 0  9990
2 60536  97.6873 269.2070 0002987  85.7568 274.4003 15.11636815103206
LEMUR-2-AHMED-ASRAR     
1 60576U 24149DN  26186.21857125  .00021275  00000+0  12012-2 0  9992
2 60576  97.6999 271.3871 0000339 289.1354  70.9839 15.13151703103299
LEMUR-2-LLOYD           
1 60577U 24149DP  26186.20654846  .00018290  00000+0  11392-2 0  9990
2 60577  97.6740 267.3488 0005181  95.5676 264.6143 15.09618294103118
LEMUR-2-SQUIRRELCOMM    
1 60578U 24149DQ  26186.18010105  .00011441  00000+0  75981-3 0  9998
2 60578  97.6700 267.0364 0005001   3.1897 356.9362 15.07368905103113
LEMUR-2-SIERRINI        
1 60579U 24149DR  26186.16291553  .00020729  00000+0  12296-2 0  9993
2 60579  97.6839 268.8385 0006546 116.1139 244.0765 15.11361742103175
LEMUR-2-WILSON          
1 62694U 25009CP  26186.16396382  .00004183  00000+0  38521-3 0  9991
2 62694  97.7019 264.3134 0002728  10.9228 349.2051 14.95249439 80042
LEMUR-2-ARIANNA         
1 62699U 25009CU  26186.20432215  .00013715  00000+0  10289-2 0  9998
2 62699  97.6871 267.4455 0004007  79.2350 280.9326 15.02758105 80262
LEMUR-2-ALISIA          
1 62706U 25009DB  26186.17881244  .00015623  00000+0  11618-2 0  9990
2 62706  97.6947 268.2261 0003293 161.8369 198.2974 15.03062515102868
LEMUR-2-ROUNDTRIPPER    
1 62711U 25009DG  26186.19100505  .00016840  00000+0  12174-2 0  9992
2 62711  97.7221 268.8463 0004579  87.8506 272.3244 15.04109103 80335
